{
  "norad_id": 45406,
  "name": "STARLINK-1265",
  "history": [
    {
      "epoch": "2026-03-28T13:47:28.823424Z",
      "apogee_km": 474.2514579806939,
      "perigee_km": 471.50831082017885,
      "latitude_deg": -1.2662807090940956e-05,
      "longitude_deg": 8.73856696470943,
      "height_km": 473.85084074202297,
      "semi_major_axis_km": 6851.016884400436,
      "eccentricity": 0.0002002,
      "inclination_deg": 53.1596,
      "raan_deg": 41.6018,
      "arg_perigee_deg": 93.0783,
      "mean_anomaly_deg": 267.0447,
      "mean_motion_rev_day": 15.30982425
    },
    {
      "epoch": "2026-03-29T03:53:30.976512Z",
      "apogee_km": 473.93881248863545,
      "perigee_km": 471.68211039483685,
      "latitude_deg": -5.8501046985233075e-05,
      "longitude_deg": 153.9209705416913,
      "height_km": 474.03616751479063,
      "semi_major_axis_km": 6850.947461441736,
      "eccentricity": 0.0001647,
      "inclination_deg": 53.1585,
      "raan_deg": 38.8723,
      "arg_perigee_deg": 106.894,
      "mean_anomaly_deg": 253.2241,
      "mean_motion_rev_day": 15.31005696
    },
    {
      "epoch": "2026-03-30T01:49:27.668352Z",
      "apogee_km": 473.4216894282654,
      "perigee_km": 470.95283256460243,
      "latitude_deg": 3.0206966488183507e-05,
      "longitude_deg": 179.78158889585058,
      "height_km": 473.51841611798005,
      "semi_major_axis_km": 6850.324260996434,
      "eccentricity": 0.0001802,
      "inclination_deg": 53.1595,
      "raan_deg": 34.6198,
      "arg_perigee_deg": 110.551,
      "mean_anomaly_deg": 249.5685,
      "mean_motion_rev_day": 15.31214623
    }
  ]
}